     2              NAVIGATION DATA                         RINEX VERSION / TYPE
 1 20  5 16  2  0  0.0-0.380465760827D-03-0.636646291241D-11 0.000000000000D+00
    0.600000000000D+01 0.158437500000D+02 0.431946563737D-08-0.182851267122D+01
    0.702217221260D-06 0.984688347671D-02 0.511482357979D-05 0.515362370300D+04
    0.525600000000D+06 0.121071934700D-06-0.296069622070D+01-0.987201929092D-07
    0.980322073024D+00 0.288375000000D+03 0.775692031098D+00-0.795640284469D-08
    0.418588864478D-09 0.100000000000D+01 0.210500000000D+04 0.000000000000D+00
    0.200000000000D+01 0.000000000000D+00 0.512227416039D-08 0.600000000000D+01
    0.518418000000D+06 0.400000000000D+01 0.000000000000D+00 0.000000000000D+00
